HCCIS ID,Hospital Name,System Affiliation,Ownership,Address,City,County,State,Zip,Phone,Fax,Administrator Name,Administrator Title,CFO Name,Hospital Website Address,CAH,MSA StatUrbans,Emergency Department Physician Director,Licensed Beds for 2021,Available Beds for 2021
1,Avera Tyler,Avera Health,"Nonprofit Corporation (nongovernmental, nonprofit)",240 Willow Street,Tyler,Lincoln,MN,56178,507-247-5521,507-247-5972,Allen Anderson,Administrator,Christy Coudron,WWW.Avera.Org,Yes,Rural,Dr. Daniel Florey,20,20
2,Abbott Northwestern Hospital,Allina Health System,"Nonprofit Corporation (nongovernmental, nonprofit)",800 East 28th Street,Minneapolis,Hennepin,MN,55407,612-863-4000,612-863-5667,David Joos,President,Colleen Holton,https://www.allinahealth.org/Abbott-Northwestern-Hospital,No,Urban,Daniel O'Laughlin,972,638
3,Essentia Health Ada,Essentia Health,"Nonprofit Corporation (nongovernmental, nonprofit)",201 9th Street West,Ada,Norman,MN,56510,218-784-5000,218-784-3855,Erin Stoltman,Administrator,Kim Bodensteiner,www.essentiahealth.org,Yes,Rural,Dr Sandra Martsching,14,14
4,Riverwood Healthcare Center,No Affiliation,"Nonprofit Corporation (nongovernmental, nonprofit)",200 Bunker Hill Drive NULL,Aitkin,Aitkin,MN,56431,218-927-2121,218-927-5516,Cindi Baker,Interim CEO,Casey Johnson,www.riverwoodhealthcare.org,Yes,Rural,"James Harris, MD",25,25
6,Appleton Area Health,No Affiliation,"City (governmental, nonfederal)",30 South Behl Street,Appleton,Swift,MN,56208,320-289-2422,320-289-1797,Greg Miner,Administrator,Jacob Redepenning,http://www.appletonareahealth.com/,Yes,Rural,Dr. Swachetan Bajwa,15,15
7,Ridgeview Sibley Medical Center,Ridgeview Medical Center,"Nonprofit Corporation (nongovernmental, nonprofit)",601 West Chandler Street NULL,Arlington,Sibley,MN,55307,507-964-2271,507-964-8490,Ben Nielsen,COO,Aaron Bloomquist,www.sibleymedical.org,Yes,Rural,Dr. Matthew Herold,20,20
10,M Health Fairview Bethesda Hospital,M Health Fairview,"Nonprofit Corporation (nongovernmental, nonprofit)",559 Capitol Blvd. NULL,St. Paul,Ramsey,MN,55103,651-232-2000,651-232-2118,Jeoff Will,"COO, Acute Care Hospitals",Hayes Batson,www.healtheast.org,No,Urban,N/A,254,15
11,Buffalo Hospital,Allina Health System,"Nonprofit Corporation (nongovernmental, nonprofit)",303 Catlin Street,Buffalo,Wright,MN,55313,763-682-1212,763-684-7105,Joshua Shepherd,President,Mark Gillen,www.allinahealth.org/buffalo-hospital,No,Urban,Dr. Laura Contreras,65,39
13,Cambridge Medical Center,Allina Health System,"Nonprofit Corporation (nongovernmental, nonprofit)",701 Dellwood Street South,Cambridge,Isanti,MN,55008,763-689-7700,763-688-7941,Joshua Shepherd,"President, Buffalo Hospital and Cambridge Medical",Mark Gillen,www.allinahealth.org/Cambridge-Medical-Center,No,Urban,Dr. Luke Dandelet,86,66
14,Sanford Canby Medical Center,Sanford Health,"Nonprofit Corporation (nongovernmental, nonprofit)",112 Saint Olaf Avenue South,Canby,Yellow Medicine,MN,56220,507-223-7277,507-223-7340,Lori Sisk,CEO,Allison Nelson,www.sanfordhealth.org,Yes,Rural,Dr. Lindsey Hanson,25,25
15,Mayo Clinic Health System in Cannon Falls,Mayo Clinic,"Nonprofit Corporation (nongovernmental, nonprofit)",32021 County 24 Boulevard NULL,Cannon Falls,Goodhue,MN,55009,507-263-4221,507-263-7853,Beth Flattum,Administrator,Praveen Mekala,https://mayoclinichealthsystem.org/,Yes,Rural,"James E. Colletti, M.D.",15,15
17,CCM Health,No Affiliation,"City - County (governmental, nonfederal)",824 N. 11th St. NULL,Montevideo,Chippewa,MN,56265,320-269-8877,320-269-8186,Brian Lovdahl,CEO,Desi Anspach,www.montevideomedical.com,Yes,Rural,Dr. Chase Osbon,30,25
19,Sanford Bagley Medical Center,Sanford Health,"Nonprofit Corporation (nongovernmental, nonprofit)",203 Fourth Street NW NULL,Bagley,Clearwater,MN,56621,218-694-6501,218-694-3528,Susan Jarvis,President & CEO,Lisa Miller,,Yes,Rural,"Andre Spence, MD",25,25
21,Sanford Luverne Medical Center,Sanford Health,"Nonprofit Corporation (nongovernmental, nonprofit)",1600 North Kniss Avenue NULL,Luverne,Rock,MN,56156,507-283-2321,507-283-2091,Tammy Loosbrock,Chief Executive Officer,"Allison Nelson, Director of Finance",www.sanfordluverne.org,Yes,Rural,"Dianne Kennedy, MD",28,25
22,River's Edge Hospital & Clinic,No Affiliation,"City (governmental, nonfederal)",1900 N. Sunrise Drive,St. Peter,Nicollet,MN,56082,507-931-2200,507-931-7651,Paula Meskan,Chief Executive Officer,Paula Meskan (acting),www.riversedgehealth.org,Yes,Rural,Dr. Davis Sand,25,25
24,Community Memorial Hospital,No Affiliation,"Nonprofit Corporation (nongovernmental, nonprofit)",512 Skyline Boulevard,Cloquet,Carlton,MN,55720,218-879-4641,218-879-9167,Rick Breuer,CEO/Administrator,Brad Anderson,www.cloquethospital.com,Yes,Urban,"Jeffrey Rapp, M.D.",36,25
25,Essentia Health - Deer River,Essentia Health,"Nonprofit Corporation (nongovernmental, nonprofit)",115 10th Ave NE,Deer River,Itasca,MN,56636,218-246-2900,218-246-2913,Monique Fox,Administrator,Kevin Boren,Kevin.Boren@essentiahealth.org,Yes,Rural,"Steven Pitschka, MD",20,20
27,Winona Health Services,No Affiliation,"Nonprofit Corporation (nongovernmental, nonprofit)",855 Mankato Ave.,Winona,Winona,MN,55987,507-454-3650,507-457-4159,Rachelle Schultz,President/CEO,Jan Brosnahan,www.winonahealth.org,No,Rural,"Christopher Watras, DO",49,49
28,Mille Lacs Health System,No Affiliation,"Nonprofit Corporation (nongovernmental, nonprofit)",200 North Elm Street,Onamia,Mille Lacs,MN,56359,320-532-3154,320-532-3111,Bill Nelson,Chief Executive Officer,John Unzen,www.mlhealth.org,Yes,Rural,Dr Arden Virnig MD,28,28
29,Cook Hospital & Care Center,No Affiliation,"Hospital District or Authority (governmental, nonfederal)",10 5th St SE NULL,Cook,St. Louis,MN,55723,218-666-5945,218-666-6228,Teresa Debevec,Administrator,Kaylee Hoard,www.cookhospital.org,Yes,Urban,"Mathew Holmes, MD",14,14
30,North Shore Health,No Affiliation,"Hospital District or Authority (governmental, nonfederal)",515 - 5TH AVENUE WEST NULL,Grand Marais,Cook,MN,55604,218-387-3040,218-387-3289,Kimber Wraalstad,Administrator,Paul Goettl,northshorehealthgm.org,Yes,Rural,Milan Schmidt,16,16
31,Cuyuna Regional Medical Center,No Affiliation,"Nonprofit Corporation (nongovernmental, nonprofit)",320 East Main Street NULL,Crosby,Crow Wing,MN,56441,218-546-7000,218-546-7268,Amy Hart,CEO,Katie Berg,www.cuyunamed.org,Yes,Rural,Christopher Kaczmarczyk,42,25
34,Alomere Health,No Affiliation,"County (governmental, nonfederal)",111 E. 17th Avenue,Alexandria,Douglas,MN,56308,320-762-1511,320-762-6101,Carl P. Vaagenes,Administrator,Nate R. Meyer,www.dchospital.com,No,Rural,David J. Odland M.D.,127,73
35,Sanford Westbrook Medical Center,Sanford Health,"Other Nonprofit Ownership (nongovernmental, nonprofit)",920 Bell Avenue NULL,Westbrook,Cottonwood,MN,56183,507-274-6121,507-274-5671,Stacy Barstad,CEO,"James Cleveland, Director of Finance",www.westbrookhealth.com,Yes,Rural,"Andrew Kopperud, MD",8,8
37,Ely-Bloomenson Community Hospital,No Affiliation,"Nonprofit Corporation (nongovernmental, nonprofit)",328 W Conan Street,Ely,St. Louis,MN,55731,218-365-3271,218-365-8777,Patti Banks,CEO,Curtis A Bach,www.ebch.org,Yes,Urban,"Rice, Sam P MD",21,16
39,Mayo Clinic Health System in Fairmont,Mayo Clinic,"Nonprofit Corporation (nongovernmental, nonprofit)",800 Medical Center Drive NULL,Fairmont,Martin,MN,56031,507-238-8100,507-238-8686,Amy Long,Site Administrator,Praveen Mekala,www.mayoclinichealthsystem.org,No,Rural,"James E. Colletti, M.D.",57,55
41,M Health Fairview Northland Medical Center,M Health Fairview,"Nonprofit Corporation (nongovernmental, nonprofit)",911 Northland Drive NULL,Princeton,Sherburne,MN,55371,763-389-1313,763-389-6306,Jeoff Will,"COO, Acute Care Hospitals",Hayes Batson,www.fairview.org,No,Urban,Dr. Brendan Meyer,54,33
42,M Health Fairview Ridges Hospital,M Health Fairview,"Nonprofit Corporation (nongovernmental, nonprofit)",201 East Nicollet Boulevard NULL,Burnsville,Dakota,MN,55337,952-892-2000,952-892-2107,Jeoff Will,COO Acute Care Hospitals,Hayes Batson,www.fairview.org,No,Urban,"John Houghland, MD",150,150
44,M Health Fairview Southdale Hospital,M Health Fairview,"Nonprofit Corporation (nongovernmental, nonprofit)",6401 France Avenue South NULL,Edina,Hennepin,MN,55435,952-924-5000,952-924-5382,Jeoff Will,"COO, Acute Care Hospitals",Hayes Batson,www.fairview.org,No,Urban,"Brandon Trigger, M.D.",390,313
45,Rainy Lake Medical Center,No Affiliation,"Nonprofit Corporation (nongovernmental, nonprofit)",1400 Highway 71 NULL,International Falls,Koochiching,MN,56649,218-283-4481,218-283-2281,Robert Pastor II,CEO,Mike Katigbak,www.rainylakemedical.com,Yes,Rural,"Kevin Marble, MD",25,18
46,Essentia Health - Fosston,Essentia Health,"Nonprofit Corporation (nongovernmental, nonprofit)",900 Hilligoss Blvd SE,Fosston,Polk,MN,56542,218-435-1133,218-435-1134,Kevin Gish,Chief Executive Officer,Kim Bodensteiner,www.essentiahealth.org,Yes,Urban,Dr. Darren Swanson,43,24
49,Gillette Children's Specialty Healthcare,No Affiliation,"Nonprofit Corporation (nongovernmental, nonprofit)",200 East University Avenue NULL,St. Paul,Ramsey,MN,55101,651-291-2848,651-325-2122,Barbara Joers,CEO and President,Patrick Nolan,www.gillettechildrens.org,No,Urban,N/A,60,55
50,Glacial Ridge Health System,No Affiliation,"Hospital District or Authority (governmental, nonfederal)",10 4th Ave. SE,Glenwood,Pope,MN,56334,320-634-4521,320-634-2269,Kirk Stensrud,Administrator and CEO,Kyle Chase,www.glacialridge.org,Yes,Rural,"Robert Montenegro, MD",34,22
51,Glencoe Regional Health,Park Nicollet Health Services,"Nonprofit Corporation (nongovernmental, nonprofit)",1805 Hennepin Avenue N NULL,Glencoe,Mcleod,MN,55336,320-864-3121,320-864-7887,Patricia D. Henderson,President/CEO,Angela Erickson,www.grhsonline.org,Yes,Rural,"Mitchell N. Palmer, M.D.",49,25
53,Avera Granite Falls,Avera Health,"Nonprofit Corporation (nongovernmental, nonprofit)",345 Tenth Ave,Granite Falls,Yellow Medicine,MN,56241,320-564-3111,320-564-2329,Thomas Kooiman,Administrator,Christy Coudron,www.avera.org,Yes,Rural,Arthur Rillo,30,25
54,Prairie Ridge Hospital and Health Services,Lake Region Healthcare - Fergus Falls,"Nonprofit Corporation (nongovernmental, nonprofit)",1411 HIGHWAY 79 E,Elbow Lake,Grant,MN,56531,218-685-7300,218-685-7296,Danielle Lesmeister,CEO,Camie Patterson - CFO,www.prairiehealth.org,Yes,Rural,Dr. Dustin Sperr,10,10
57,Owatonna Hospital,Allina Health System,"Nonprofit Corporation (nongovernmental, nonprofit)",2250 NW 26th Street,Owatonna,Steele,MN,55060,507-451-3850,507-977-2335,Michael Johnston,President,Mark Gillen,www.allinahealth.org/Owatonna-Hospital/,No,Rural,"Shawn Brennen, MD",43,43
58,Hendricks Community Hospital Association,No Affiliation,"Nonprofit Corporation (nongovernmental, nonprofit)",503 East Lincoln Street,Hendricks,Lincoln,MN,56136,507-275-3134,507-275-3104,Jeff Gollaher,Administrator,Travis Olsen,www.hendrickshosp.org,Yes,Rural,"Tabb McCluskey, DO",24,10
59,Hennepin Healthcare,No Affiliation,"County (governmental, nonfederal)",701 Park Avenue,Minneapolis,Hennepin,MN,55415,678-873-3000,612-873-1507,Jennifer DeCubellis,Chief Executive Officer,Derrick Hollings,www.hennepinhealthcare.org,No,Urban,"James Miner, MD",894,448
61,Essentia Health - Graceville,Essentia Health,"Nonprofit Corporation (nongovernmental, nonprofit)",115 West 2nd Street,Graceville,Big Stone,MN,56240,320-748-7223,320-748-7225,Julie Rosenberg,Administrator,Kim Bodensteiner,www.gracevillehealth.com,Yes,Rural,"Jay Schmidt, MD",15,15
62,Hutchinson Health,"HealthPartners, Inc.","Nonprofit Corporation (nongovernmental, nonprofit)",1095 Highway 15 South,Hutchinson,Mcleod,MN,55350,320-234-5000,952-883-3088,James P. Lyons,President,Pamela J Larson,"www,hutchhealth.com",No,Rural,Dr. Luke Helland,66,36
63,Mayo Clinic Health System in Mankato,Mayo Clinic,"Nonprofit Corporation (nongovernmental, nonprofit)",1025 Marsh Street NULL,Mankato,Blue Earth,MN,56001,507-625-4031,507-345-2926,Terry Brandt,Regional Chair,Praveen Mekala,https://mayoclinichealthsystem.org/,No,Rural,"James E. Colletti, M.D.",272,161
64,Grand Itasca Clinic and Hospital,M Health Fairview,"Nonprofit Corporation (nongovernmental, nonprofit)",1601 Golf Course Road NULL,Grand Rapids,Itasca,MN,55744,218-326-3401,218-326-7743,Jean MacDonell,President,Hayes Batson,www.granditasca.org,No,Rural,"Dr. Paul Palecek, M.D.",64,51
65,Sanford Jackson Medical Center,Sanford Health,"Nonprofit Corporation (nongovernmental, nonprofit)",1430 North Highway NULL,Jackson,Jackson,MN,56143,507-847-2420,507-847-3728,Dawn Schnell,Senior Director,"Jim Cleveland, Director of Finance",www.sanfordjackson.org,Yes,Rural,"Ronald Kline, MD",20,14
66,Johnson Memorial Health Services,No Affiliation,"Hospital District or Authority (governmental, nonfederal)",1282 Walnut Street,Dawson,Lac Qui Parle,MN,56232,320-769-4323,320-769-2972,Kristin Jacobson,Administrator,Crystal M Bothun,jmhsdawson.com,Yes,Rural,Dr. Eric Shelstad,20,20
67,Welia Health,No Affiliation,"Nonprofit Corporation (nongovernmental, nonprofit)",301 South Hwy 65,Mora,Kanabec,MN,55051,320-679-1212,320-679-1643,Randy Ulseth,Chief Executive Officer,Joshua Asp,www.weliahealth.org,Yes,Rural,"Robert Weeks, MD",49,23
69,Kittson Memorial Healthcare Center,No Affiliation,"Nonprofit Corporation (nongovernmental, nonprofit)",1010 South Birch Avenue,Hallock,Kittson,MN,56728,218-843-3612,218-843-2311,Gabriel Mooney,CEO,Jeni Schwenzfeier,www.kmhc.net,Yes,Rural,Dr. James Surdy,15,15
70,Mayo Clinic Health System in Lake City,Mayo Clinic,"Nonprofit Corporation (nongovernmental, nonprofit)",500 West Grant Street NULL,Lake City,Goodhue,MN,55041,651-345-3321,651-345-1182,Beth Flattum,Administrator,Praveen Mekala,http://mayoclinichealthsystem.org,Yes,Rural,"James E. Colletti, M.D.",18,15
71,Lake Region Healthcare,No Affiliation,"Nonprofit Corporation (nongovernmental, nonprofit)",712 S Cascade St,Fergus Falls,Otter Tail,MN,56537,218-736-8000,218-736-8723,Kent Mattson,Chief Executive Officer,Camie Patterson,www.lrhc.org,No,Rural,Dr. Mathias Christianson,94,94
72,Lake View Memorial Hospital,"St. Luke's Hospital, Duluth","Nonprofit Corporation (nongovernmental, nonprofit)",325 11th Avenue,Two Harbors,Lake,MN,55616,218-834-7300,218-834-7388,Greg Ruberg,President/CEO,Eric Lohn,www.lvmhospital.com,Yes,Rural,"Shawn McMahon, MD",25,16
74,Lakeview Hospital,"HealthPartners, Inc.","Nonprofit Corporation (nongovernmental, nonprofit)",927 West Churchill Street,Stillwater,Washington,MN,55082,651-439-5330,651-430-4528,Nathan Pulscher,Vice President,Douglas Johnson,www.lakeviewhealth.org,No,Urban,Dr. Bjorn Peterson,97,68
76,CentraCare Health System - Long Prairie,CentraCare Health System,"Nonprofit Corporation (nongovernmental, nonprofit)",50 CentraCare Drive,Long Prairie,Todd,MN,56347,320-732-2141,320-732-7298,Daniel Swenson,Administrator,Adam Paulson,www.centracare.com,Yes,Rural,"Dr. Rene Eldidy, Jr.",34,14
77,Madelia Health,No Affiliation,"Nonprofit Corporation (nongovernmental, nonprofit)",121 Drew Avenue Southeast,Madelia,Watonwan,MN,56062,507-642-3255,501-642-8516,Jake Redden,Administrator,Bruce Craven,www.mchospital.org,Yes,Rural,Dr. Sarah Dryden,25,25
78,Madison Hospital,No Affiliation,"Nonprofit Corporation (nongovernmental, nonprofit)",900 Second Avenue,Madison,Lac Qui Parle,MN,56256,320-598-7551,320-598-3923,Erik Bjerke,CEO,Carol Borgerson,www.mhsmn.org,Yes,Rural,Dr. Brant Hacker,12,12
79,Mahnomen Health Center,Sanford Health,"City (governmental, nonfederal)",414 West Jefferson NULL,Mahnomen,Mahnomen,MN,56557,218-935-2511,218-935-2370,Dale Kruger,Administrator,Lori Guenther,www.mahnomenhealthcenter.com,Yes,Rural,"Jon Larson, MD",18,10
80,Meeker Memorial Hospital,No Affiliation,"County (governmental, nonfederal)",612 South Sibley Avenue,Litchfield,Meeker,MN,55355,320-693-4500,320-693-4567,Kurt Waldbillig,CEO,Nicole Siegner,www.meekermemorial.org,Yes,Rural,"Davis Sand, MD",35,35
81,CentraCare Health - Melrose,CentraCare Health System,"Nonprofit Corporation (nongovernmental, nonprofit)",525 Main Street West,Melrose,Stearns,MN,56352,320-256-4231,320-256-4949,Bryan Bauck,"Executive Director, West Regional Rural Health",Adam Paulson,www.centracare.com,Yes,Urban,Dr. Kurt Schwieters,28,14
83,Essentia Health Moose Lake,Essentia Health,"Nonprofit Corporation (nongovernmental, nonprofit)",4572 County Road 61,Moose Lake,Carlton,MN,55767,218-485-4481,218-485-5654,Dr. Thomas Witt,Administrator,Kevin Boren,Kevin.Boren@essentiahealth.org,Yes,Urban,Dr. Adam Ruitta,25,25
84,Mercy Hospital*****,Allina Health System,"Nonprofit Corporation (nongovernmental, nonprofit)",4050 Coon Rapids Blvd. NW,Coon Rapids,Anoka,MN,55433,763-236-6000,763-236-8650,Jill Ostrem,President,Colleen Holton,www.allinahealth.org/Mercy-Hospital/,No,Urban,Dr. Michael Schwemm & Eric Haug,546,492
85,Fairview Range,M Health Fairview,"Nonprofit Corporation (nongovernmental, nonprofit)",750 East 34th Street NULL,Hibbing,St. Louis,MN,55746,218-262-4881,218-362-6619,Jean MacDonell,President -Grand Itasca/Range,Hayes Batson,www.fairview.org,No,Urban,Dr. Peter Olsen,175,73
86,Park Nicollet Methodist Hospital,Park Nicollet Health Services,"Nonprofit Corporation (nongovernmental, nonprofit)",6500 Excelsior Boulevard,St. Louis Park,Hennepin,MN,55426,952-993-5000,952-993-5936,Steven Connelly,CMO,Heidi Conrad,www.parknicollet.com,No,Urban,"Brent Walters, MD",426,356
90,Essentia Health Duluth,Essentia Health,"Nonprofit Corporation (nongovernmental, nonprofit)",502 East Second Street,Duluth,St. Louis,MN,55805,218-786-4000,218-786-1456,Brad Beard,Chief Operating Officer,Kevin Boren,www.essentiahealth.org,No,Urban,N/A,165,150
91,Children's Minnesota****,Children's Hospitals and Clinics,"Other Nonprofit Ownership (nongovernmental, nonprofit)",2525 Chicago Avenue South,Minneapolis,Hennepin,MN,55404,612-813-6100,952-992-6994,Marc H Gorelick,President and CEO,Brenda McCormick,www.childrensmn.org,No,Urban,Dr. Robert Sicoli,279,279
92,Ridgeview Le Sueur Medical Center,Ridgeview Medical Center,"Nonprofit Corporation (nongovernmental, nonprofit)",621 South Fourth Street NULL,Le Sueur,Le Sueur,MN,56058,507-665-3375,507-665-2191,Stacey Lee,Vice President,Aaron Bloomquist,www.ridgeviewlesueur.org,Yes,Rural,"Assen Chekerdjiev, MD",15,9
94,CentraCare - Monticello,CentraCare Health System,"Nonprofit Corporation (nongovernmental, nonprofit)",1013 Hart Boulevard,Monticello,Wright,MN,55362,763-295-2945,763-271-2299,Bryan Bauck,Administrator,Jason Weaver,www.centracare.com,Yes,Urban,Dr. Mark Bonneville,39,35
98,Carris Health - Redwood,CentraCare Health System,"Nonprofit Corporation (nongovernmental, nonprofit)",103 Caring Way,Redwood Falls,Redwood,MN,56283,507-637-4500,507-697-6000,Carnie Allex,Administrator,Mike Blair,www.carrishealth.com,Yes,Rural,Dr Cynthia Gronau,25,14
99,Murray County Medical Center,Sanford Health,"County (governmental, nonfederal)",2042 Juniper Avenue,Slayton,Murray,MN,56172,507-836-6111,507-836-6700,Luke Schryvers,CEO,Robyn Van Heuvelen,www.murraycountymed.org,Yes,Rural,Dr. Steven Snow,25,21
100,Mayo Clinic Health System - Albert Lea and Austin**,Mayo Clinic,"Nonprofit Corporation (nongovernmental, nonprofit)",404 W. Fountain Street NULL,Albert Lea,Freeborn,MN,56007,507-373-2384,507-377-6464,Kris Johnson,SE MN Region Administrator,Praveen Mekala,https://mayoclinichealthsystem.org/,No,Rural,"James E. Colletti, M.D.",159,84
102,Sanford Bemidji Medical Center,Sanford Health,"Nonprofit Corporation (nongovernmental, nonprofit)",1300 Anne Street NW NULL,Bemidji,Beltrami,MN,56601,218-751-5430,218-751-5880,Susan Jarvis,President and CEO,Lisa Miller,sanfordhealth.org,No,Rural,"Joseph Corser, MD",118,101
103,North Memorial Health Hospital,North Memorial Health Care,"Nonprofit Corporation (nongovernmental, nonprofit)",3300 Oakdale Avenue North,Robbinsdale,Hennepin,MN,55422,763-520-5000,763-520-5006,Dr. Kevin Croston,President/CEO,Dan Fromm,http://www.northmemorial.com,No,Urban,Dr. Christopher Palmer,518,350
104,Bigfork Valley Hospital,No Affiliation,"Hospital District or Authority (governmental, nonfederal)",258 Pinetree Drive,Bigfork,Itasca,MN,56628,218-743-3177,218-743-3559,Aaron Saude,CEO,Darla Anderson,www.bigforkvalley.org,Yes,Rural,"Edwin Anderson, MD",20,20
105,Northfield Hospital & Clinics,No Affiliation,"City - County (governmental, nonfederal)",2000 North Avenue,Northfield,Dakota,MN,55057,507-646-1000,507-646-1392,Steve Underdahl,President / CEO,Scott Edin,www.northfieldhospital.org,No,Urban,"Jennifer Fischer, MD",37,37
106,Sanford Thief River Falls Medical Center,Sanford Health,"Nonprofit Corporation (nongovernmental, nonprofit)",3001 Sanford Parkway NULL,Thief River Falls,Pennington,MN,56701,218-681-4240,218-683-4511,Brian Carlson,CEO,Kristin Hermann,http://www.sanfordhealth.org/,Yes,Rural,"Jawad Khan, MD",26,26
107,Olmsted Medical Center,No Affiliation,"Nonprofit Corporation (nongovernmental, nonprofit)",1650 Fourth Street Southeast,Rochester,Olmsted,MN,55904,507-529-6600,507-529-6622,Tim Weir,Chief Executive Officer,Kevin Higgins,www.olmstedmedicalcenter.org,No,Urban,Dr. Jay Myers,61,41
108,Ortonville Area Health Services,Sanford Health,"City (governmental, nonfederal)",450 Eastvold Avenue,Ortonville,Big Stone,MN,56278,320-839-2502,320-839-4107,David Rogers,CEO,Shane Ayres,www.oahs.us,Yes,Rural,"Dr. Allan Ross, MD",25,25
110,CentraCare - Paynesville,CentraCare Health System,"Nonprofit Corporation (nongovernmental, nonprofit)",200 West First Street,Paynesville,Stearns,MN,56362,320-243-3767,320-243-6707,Brandon Pietsch,Administrator,Jennifer Holtz,www.centracare.com,Yes,Urban,Lawrence Strate,30,25
112,Perham Health,Sanford Health,"Hospital District or Authority (governmental, nonfederal)",1000 Coney Street West,Perham,Otter Tail,MN,56573,218-346-4500,218-346-4540,Chuck Hofius,Administrator,Justine Anderson,www.perhamhealth.org,Yes,Rural,"Timothy Studer, D.O.",25,23
113,Pipestone County Medical Center,Avera Health,"County (governmental, nonfederal)",916 Fourth Ave S.W.,Pipestone,Pipestone,MN,56164,507-825-5811,507-825-5733,Brad Burris,CEO/Administrator,Sandra Schlechter,www.pipestonehealth.org,Yes,Rural,Dr. Miles Zephier,44,25
114,Mayo Clinic Health System in New Prague,Mayo Clinic,"Nonprofit Corporation (nongovernmental, nonprofit)",301 Second Street Northeast NULL,New Prague,Scott,MN,56071,952-758-4431,952-758-5009,Mackenzie Miller,Site Administrator,Praveen Mekala,mayoclinichealthsystem.org,Yes,Urban,"James E. Colletti, M.D.",49,20
115,Regina Hospital,Allina Health System,"Nonprofit Corporation (nongovernmental, nonprofit)",1175 Nininger Road,Hastings,Dakota,MN,55033,651-404-1000,651-404-1240,Helen Strike,President,Mark Gillen,http://www.allinahealth.org/Regina-Hospital/,No,Urban,Dr. Justin Pattee,57,49
116,Olivia Hospital & Clinic,"HealthPartners, Inc.","Corporation (nongovernmental, FOR PROFIT)",100 Healthy Way NULL,Olivia,Renville,MN,56277,320-523-1261,320-523-3458,Nathan Blad,President,Nancy Anderson,www.oliviahospital.com,Yes,Rural,Dr. Jill Donofrio,16,16
117,Allina Health Faribault Medical Center,Allina Health System,"Nonprofit Corporation (nongovernmental, nonprofit)",200 State Avenue,Faribault,Rice,MN,55021,507-334-6451,507-332-4851,Michael Johnston,President,Mark Gillen,https://www.allinahealth.org/allina-health-faribault-medical-center,No,Rural,"Tom Horejsi, MD",49,32
118,Carris Health - Rice Memorial Hospital,CentraCare Health System,"Nonprofit Corporation (nongovernmental, nonprofit)",301 Becker Avenue Southwest,Willmar,Kandiyohi,MN,56201,320-235-4543,320-231-4869,Michael Schramm,CEO,Mike Blair,Mike.Blair@Centracare.com,No,Rural,"Kenneth Flowe, MD",136,81
119,RiverView Health,No Affiliation,"Nonprofit Corporation (nongovernmental, nonprofit)",323 South Minnesota Street,Crookston,Polk,MN,56716,218-281-9200,218-281-9222,Carrie Michalski,CEO,Betty Arvidson,www.riverhealth.org,Yes,Urban,Dr. Fashoro,49,25
121,LifeCare Medical Center,No Affiliation,"Nonprofit Corporation (nongovernmental, nonprofit)",715 Delmore Drive,Roseau,Roseau,MN,56751,218-463-2500,218-463-1266,Keith Okeson,President/CEO,Catherine Huss,www.lifecaremedicalcenter.org,Yes,Rural,Dr. Alan Grillo,25,25
124,Essentia Health - Sandstone,Essentia Health,"Nonprofit Corporation (nongovernmental, nonprofit)",705 Lundorff Drive,Sandstone,Pine,MN,55072,320-245-2212,320-245-5243,Dr. Tim Witt,COO,Kevin Boren,www.essentiahealth.org,Yes,Rural,"Erika Miles, MD",30,9
127,New Ulm Medical Center,Allina Health System,"Nonprofit Corporation (nongovernmental, nonprofit)",1324 Fifth Street N,New Ulm,Brown,MN,56073,507-233-1000,507-233-1575,Toby Freier,President,Mark Gillen,www.allinahealth.org/New-Ulm-Medical-Center/,Yes,Rural,"Brittany Brindle, MD",62,34
129,Sleepy Eye Medical Center,No Affiliation,"City (governmental, nonfederal)",400 Fourth Avenue Northwest,Sleepy Eye,Brown,MN,56085,507-794-3571,507-794-5460,Kevin Sellheim,Administrator,0,www.semedicalcenter.org,Yes,Rural,Dr. John Pelzel,16,16
132,CentraCare - St. Cloud Hospital,CentraCare Health System,"Church Related (nongovernmental, nonprofit)",1406 6th Avenue North,St. Cloud,Stearns,MN,56303,320-251-2700,320-255-5756,Joy Plamann,President,Mike Blair,www.centracare.com,No,Urban,Dr. Kurt Belk,489,448
133,Saint Elizabeth's Medical Center,Ascension Health,"Nonprofit Corporation (nongovernmental, nonprofit)",1200 Fifth Grant Boulevard West,Wabasha,Wabasha,MN,55981,612-565-4531,612-565-2482,Jim Root,Administrator,John Wolfe,https://www.gundersenhealth.org/st-elizabeths/hospital/,Yes,Urban,Dr. Dennis Spano,25,14
134,CHI St. Francis Health,Catholic Health Initiatives,"Church Related (nongovernmental, nonprofit)",2400 St. Francis Drive,Breckenridge,Wilkin,MN,56520,218-643-3000,218-643-7344,David Nelson,President/CEO,Vacant at 6/30/2021,www.sfcare.org,Yes,Rural,Dr. Paul Wasemiller,25,25
135,St. Francis Regional Medical Center,Allina Health System; Park Nicollet Health Services,"Nonprofit Corporation (nongovernmental, nonprofit)",1455 St. Francis Avenue,Shakopee,Scott,MN,55379,952-428-3000,952-428-3820,Amy Jerdee,President,Angela Gutzmer,http://www.stfrancis-shakopee.com/,No,Urban,Dr. Brian Clarkowski,93,89
136,CHI St. Gabriel's Health,Catholic Health Initiatives,"Nonprofit Corporation (nongovernmental, nonprofit)",815 2nd Street Southeast,Little Falls,Morrison,MN,56345,320-632-5441,320-631-5680,Steve Smith,CEO,Steve Smith,stgabriels.com,Yes,Rural,Dr. David Anderson,49,25
138,Mayo Clinic Health System in Red Wing,Mayo Clinic,"Nonprofit Corporation (nongovernmental, nonprofit)",701 Hewitt Boulevard NULL,Red Wing,Goodhue,MN,55066,651-267-5000,651-385-3448,Beth Flattum,Chief Administrative Officer,Praveen Mekala,wwww.mayoclinichealthsystem.org,No,Rural,"James E. Colletti, M.D.",50,50
140,CHI St. Joseph's Health,Catholic Health Initiatives,"Church Related (nongovernmental, nonprofit)",600 Pleasant Avenue,Park Rapids,Hubbard,MN,56470,218-732-3311,218-732-1368,Ben Koppelman,Chief Executive Officer,Jay Ross,www.chisjh.org,Yes,Rural,Peter Anagnostopoulos,50,25
141,Saint Joseph's Hospital,M Health Fairview,"Nonprofit Corporation (nongovernmental, nonprofit)",69 West Exchange Street NULL,St. Paul,Ramsey,MN,55102,651-232-3000,651-232-3518,Jeoff Will,"COO, Acute Care Hospitals",Hayes Batson,www.healtheast.org,No,Urban,Dr. Brian Ness,401,153
142,Essentia Health-St. Joseph's Medical Center,Essentia Health,"Church Related (nongovernmental, nonprofit)",523 North Third Street,Brainerd,Crow Wing,MN,56401,218-829-2861,218-828-3103,Dr. Jon Pryor,President Essentia Health East Region,Kevin Boren,www.essentiahealth.org,No,Rural,"Jeffrey Porter, MD",162,127
143,St. Luke's Hospital,"St. Luke's Hospital, Duluth","Nonprofit Corporation (nongovernmental, nonprofit)",915 East 1st Street,Duluth,St. Louis,MN,55805,218-249-5555,218-249-2472,Eric Lohn,Co - President & CEO -CFO,Eric Lohn,www.slhduluth.com,No,Urban,Nicholas Van Deelen,267,267
145,Mayo Clinic Hospital - Rochester***,Mayo Clinic,"Nonprofit Corporation (nongovernmental, nonprofit)",1216 Second Street Southwest NULL,Rochester,Olmsted,MN,55902,507-266-4742,507-284-0986,Kenneth Ackerman,Assoc - Administrator Hospital,Adam M. Horst,http://www.mayoclinic.org/saintmaryshospital/,No,Urban,"James E. Colletti, M.D.","2,059","1,309"
147,St. Mary's Regional Health Center,Essentia Health,"Nonprofit Corporation (nongovernmental, nonprofit)",1027 Washington Ave,Detroit Lakes,Becker,MN,56501,218-847-5611,218-847-0813,Tanner Goodrich,"Senior Vice President, Operations - West Market",Robert Green,www.essentiahealth.org,No,Rural,Dr Bud Belk,87,36
148,Essentia Health St. Mary's Medical Center,Essentia Health,"Nonprofit Corporation (nongovernmental, nonprofit)",407 East Third Street,Duluth,St. Louis,MN,55805,218-786-4000,218-786-8406,Brad Beard,Chief Operating Officer,Kevin Boren,www.essentiahealth.org,No,Urban,Dr. Adam Riutta,380,329
149,CentraCare - Sauk Centre,CentraCare Health System,"Nonprofit Corporation (nongovernmental, nonprofit)",425 North Elm Street,Sauk Centre,Stearns,MN,56378,320-352-2221,320-352-5150,Patty Roth,Senior Director,Adam Paulson,www.centracare.com,Yes,Urban,"Ben Haeg, MD",28,20
151,Regions Hospital,"HealthPartners, Inc.","Nonprofit Corporation (nongovernmental, nonprofit)",640 Jackson Street,St. Paul,Ramsey,MN,55101,651-254-2191,651-254-2194,Megan Remark,President & CEO,John Clark,www.regionshospital.com,No,Urban,"Kurt Isenberger, MD",512,511
152,Stevens Community Medical Center,No Affiliation,"Nonprofit Corporation (nongovernmental, nonprofit)",400 East First Street,Morris,Stevens,MN,56267,320-589-1313,320-589-7686,Kerrie McEvilly,President & CEO,Jeff Lewis,www.scmcinc.org,Yes,Rural,"Jason Andrew Hughes, MD",49,25
153,Swift County-Benson Health Services,CentraCare Health System,"Hospital District or Authority (governmental, nonfederal)",1815 Wisconsin Avenue NULL,Benson,Swift,MN,56215,320-843-4232,320-843-4172,Dan Enderson,COFO,Dan Enderson,denderson@scbh.org,Yes,Rural,"Josie Syverson, MD",21,21
156,Sanford Tracy Medical Center,Sanford Health,"Nonprofit Corporation (nongovernmental, nonprofit)",251 5th Street E. NULL,Tracy,Lyon,MN,56175,507-629-3200,507-629-3202,Stacy Barstad,CEO,"James Cleveland, Director of Finance",www.sanfordtracy.org,Yes,Rural,"Abdul Khan, MD",25,25
157,Tri-County Health Care,No Affiliation,"Nonprofit Corporation (nongovernmental, nonprofit)",415 N. Jefferson Street NULL,Wadena,Wadena,MN,56482,218-631-3510,218-631-7511,Joel Beiswenger,CEO,Kim Aagard,www.tchc.org,Yes,Rural,Rachel Redig MD,49,25
159,CHI LakeWood Health,Catholic Health Initiatives,"Church Related (nongovernmental, nonprofit)",600 Main Ave. South,Baudette,Lake Of The Woods,MN,56623,218-634-2120,218-634-1094,Jeff Stampohar,President,Jay Ross,https://lakewoodhealthcenter.org,Yes,Rural,Dr. Justin Quo,15,15
161,Lakewood Health System,No Affiliation,"Nonprofit Corporation (nongovernmental, nonprofit)",49725 County Road 83,Staples,Todd,MN,56479,218-894-1515,218-894-0355,Tim Rice,President,Lisa Bjerga,www.lakewoodsystem.com,Yes,Rural,Dr. Christine Albrecht,37,37
162,United Hospital District,No Affiliation,"Nonprofit Corporation (nongovernmental, nonprofit)",515 S. Moore St.,Blue Earth,Faribault,MN,56013,507-526-3273,507-526-3621,Rick Ash,Chief Executive Officer,Patrick Justin,www.uhd.org,Yes,Rural,"Aaron Johnson, MD",43,25
163,United Hospital,Allina Health System,"Nonprofit Corporation (nongovernmental, nonprofit)",333 North Smith Avenue,St. Paul,Ramsey,MN,55102,612-220-8000,651-241-7368,Jill Ostrem,President,Colleen Holton,www.allinahealth.org/United-Hospital/,No,Urban,Dr. Scott Donner,546,388
167,Essentia Health Virginia,Essentia Health,"Nonprofit Corporation (nongovernmental, nonprofit)",901 9th St. N.,Virginia,St. Louis,MN,55792,218-741-3340,218-749-9427,Samuel Stone,Chief Operating Officer,Kevin Boren,www.essentiahealth.org,No,Urban,Dr. Brian Junnila,83,64
168,Ridgeview Medical Center,Ridgeview Medical Center,"Nonprofit Corporation (nongovernmental, nonprofit)",500 South Maple Street NULL,Waconia,Carver,MN,55387,952-442-2191,952-442-6543,Michael Phelps,President & CEO,Aaron Bloomquist,www.ridgeviewmedical.org,No,Urban,Dr. David Larson,109,96
169,North Valley Health Center,No Affiliation,"Nonprofit Corporation (nongovernmental, nonprofit)",300 West Good Samaritan Drive,Warren,Marshall,MN,56762,218-745-4211,218-745-4215,Jon Linnell,Administrator/CEO,Mitch Kotrba,www.northvalleyhealth.org,Yes,Rural,Dr. Frances LeBlanc,12,12
170,Mayo Clinic Health System in Waseca,Mayo Clinic,"Nonprofit Corporation (nongovernmental, nonprofit)",501 N State Street NULL,Waseca,Waseca,MN,56093,507-835-1210,507-781-8280,Mackenzie Miller,Administrator,Praveen Mekala,http://mayoclinichealthsystem.org,Yes,Rural,"James E. Colletti, M.D.",35,12
171,Mayo Clinic Health System in St. James,Mayo Clinic,"Nonprofit Corporation (nongovernmental, nonprofit)",1101 Moulton & Parsons Drive NULL,St. James,Watonwan,MN,56081,507-375-3261,507-375-8605,Amy Long,Administrator,Praveen Mekala,www.mayohealthsystem.org,Yes,Rural,"James E. Colletti, M.D.",25,13
172,Avera Marshall Regional Medical Center,Avera Health,"Nonprofit Corporation (nongovernmental, nonprofit)",300 South Bruce Street,Marshall,Lyon,MN,56258,507-532-9661,507-537-9053,Debbie Streier,Regional President & CEO,Christy Coudron,averamarshall.org,Yes,Rural,Dr. Michael Gerber,49,35
174,Sanford Wheaton Medical Center,Sanford Health,"Nonprofit Corporation (nongovernmental, nonprofit)",401 12th Street North NULL,Wheaton,Traverse,MN,56296,320-563-8226,320-563-8012,Chelsie Falk,Chief Executive Officer,Kristin Hermann,www.sanfordwheaton.org,Yes,Rural,Dr. Patrick Emery,25,15
175,Essentia Health Northern Pines,Essentia Health,"Nonprofit Corporation (nongovernmental, nonprofit)",5211 Highway 110,Aurora,St. Louis,MN,55705,218-229-2211,218-229-2042,Laura Ackman,Administrator/CEO,Kevin Boren,EssentiaHealth.org,Yes,Urban,Dr. Christopher Whiting,16,16
176,Windom Area Health,Sanford Health,"City (governmental, nonfederal)",2150 Hospital Drive,Windom,Cottonwood,MN,56101,507-831-2400,507-831-5749,Shelby Medina,CEO,John Peyerl,www.windomareahealth.org,Yes,Rural,Dr. Rodney Dynes,18,18
177,Sanford Worthington Medical Center,Sanford Health,"Nonprofit Corporation (nongovernmental, nonprofit)",1018 Sixth Avenue NULL,Worthington,Nobles,MN,56187,507-372-2941,507-372-3240,Jennifer Weg,Executive Director,"James Cleveland, Director of Finance",www.sanfordregionalworthington.org,No,Rural,Dr. Justin Kane,48,48
180,M Health Fairview St. John's Hospital,M Health Fairview,"Nonprofit Corporation (nongovernmental, nonprofit)",1575 Beam Avenue NULL,Maplewood,Ramsey,MN,55109,651-232-7000,651-232-3601,Jeoff Will,COO Acute Care Hospitals,Hayes Batson,www.healtheast.org,No,Urban,Dr. Anthony Nardi,184,184
183,Regency Hospital of Minneapolis,Select Medical Corporation,"Corporation (nongovernmental, FOR PROFIT)",1300 Hidden Lakes Parkway,Golden Valley,Hennepin,MN,55422,763-588-2750,763-521-3805,Sean Stricker,CEO/Administrator,Martin Jackson,www.selectmedical.com,No,Urban,No ER Department,92,92
185,M Health Fairview University of Minnesota Medical Center,M Health Fairview,"Nonprofit Corporation (nongovernmental, nonprofit)",2450 Riverside Avenue,Minneapolis,Hennepin,MN,55454,612-672-6000,612-672-4098,Mary Johnson,Site VP / Sr Dir Ops,Hayes Batson,www.mhealthfairview.org,No,Urban,Dr. David Milbrandt,"1,700",781
186,M Health Fairview Lakes Medical Center,M Health Fairview,"Nonprofit Corporation (nongovernmental, nonprofit)",5200 Fairview Boulevard NULL,Wyoming,Chisago,MN,55092,651-982-7000,651-982-7110,Jeoff Will,"COO, Acute Care Hospitals",Hayees Batson,www.fairview.org,No,Urban,"David Warren, MD",61,55
187,Woodwinds Health Campus,M Health Fairview,"Nonprofit Corporation (nongovernmental, nonprofit)",1925 Woodwinds Drive NULL,Woodbury,Washington,MN,55125,651-232-6880,651-232-6888,Jeoff Will,COO Acute Care Hospitals,Hayes Batson,www.healtheast.org,No,Urban,Dr. Scott Nicholls,86,86
191,Maple Grove Hospital,North Memorial Health Care,"Nonprofit Corporation (nongovernmental, nonprofit)",9875 Hospital Drive,Maple Grove,Hennepin,MN,55369,763-581-1000,763-581-1555,Dr. Kevin Croston,Chief Executive Officer,Dan Fromm,www.maplegrovehospital.com,No,Urban,"Jeffrey Elder, MD",130,108
200,Anoka Metro Regional Treatment Center,"Dept of Human Services, State of MN","State (governmental, nonfederal)",3301 7th Avenue North,Anoka,Anoka,MN,55303,763-712-4000,763-712-4013,Marshall E. Smith,Chief Executive Officer,Shirley Jacobson,shirley.jacobson@state.mn.us,No,Urban,N/A,175,110
209,Community Adolescent Behavioral Health Services,"Dept of Human Services, State of MN","State (governmental, nonfederal)",1701 Technology Drive NE,Willmar,Kandiyohi,MN,56201,320-231-5421,320-231-5901,Marshall E. Smith,Chief Executive Officer,Shirley Jacobson,shirley.jacobson@state.mn.us,No,Rural,N/A,16,10
248,Community Behavioral Health Hospital-Alexandria,"Dept of Human Services, State of MN","State (governmental, nonfederal)",1610 8th Ave. E.,Alexandria,Douglas,MN,56308,320-335-6201,320-759-1002,Marshall E. Smith,Chief Executive Officer,Shirley Jacobson,shirley.jacobson@state.mn.us,No,Rural,N/A,16,16
249,Community Behavioral Health Hospital - Annandale,"Dept of Human Services, State of MN","State (governmental, nonfederal)",400 Annandale Blvd,Annandale,Wright,MN,55302,651-259-3850,320-274-7018,Marshall E. Smith,Chief Executive Officer,Shirley Jacobson,shirley.jacobson@state.mn.us,No,Urban,N/A,16,16
250,Community Behavioral Health Hospital - Fergus Falls,"Dept of Human Services, State of MN","State (governmental, nonfederal)",1801 West Aicott Avenue,Fergus Falls,Otter Tail,MN,56538,218-332-5001,218-739-1329,Marshall E. Smith,Chief Executive Officer,Shirley Jacobson,shirley.jacobson@state.mn.us,No,Rural,N/A,16,16
251,Community Behavioral Health Hospital - Rochester,"Dept of Human Services, State of MN","State (governmental, nonfederal)",251 Wood Lake Drive SE,Rochester,Olmsted,MN,55904,507-206-2561,507-529-2748,Marshall E. Smith,Chief Executive Officer,Shirley Jacobson,shirley.jacobson@state.mn.us,No,Urban,N/A,16,16
254,Community Behavioral Health Hospital - Baxter,"Dept of Human Services, State of MN","State (governmental, nonfederal)",14241 Grand Oaks Drive,Baxter,Crow Wing,MN,56425,218-316-3104,218-829-9141,Marshall E. Smith,Chief Executive Officer,Shirley Jacobson,shirley.jacobson@state.mn.us,No,Rural,N/A,16,16
256,Community Behavioral Health Hospital - Bemidji,"Dept of Human Services, State of MN","State (governmental, nonfederal)","800 Bemidji Avenue North, Suite 200",Bemidji,Beltrami,MN,56601,218-308-2400,218-308-6800,Marshall E. Smith,Chief Executive Officer,Shirley Jacobson,,No,Rural,N/A,16,16
259,PrairieCare,No Affiliation,"Limited Liability Company (nongovernmental, FOR PROFIT)",9400 Zane Ave N,Brooklyn Park,Hennepin,MN,55443,763-762-8800,763-315-3539,Todd Archbold,CEO,Randy Drager,www.prairie-care.com,No,Urban,N/A,71,71
260,Sanford Behavioral Health Center,Sanford Health,"Nonprofit Corporation (nongovernmental, nonprofit)",120 Labree Ave South NULL,Thief River Falls,Pennington,MN,56701,218-683-4349,-,Brian Carlson,CEO,Kristin Hermann,,No,Rural,N/A,16,16
